IRIDIUM 7               
1 24793U 97020B   24246.75163509  .00001181  00000+0  40505-3 0  9994
2 24793  86.3940 297.3493 0002216  86.2768 273.8682 14.35391399430653
IRIDIUM 5               
1 24795U 97020D   24246.93767368  .00013670  00000+0  12610-2 0  9990
2 24795  86.3926 215.5676 0122666  86.1664 275.3577 14.88910360442634
IRIDIUM 4               
1 24796U 97020E   24246.84777120  .00001133  00000+0  38119-3 0  9992
2 24796  86.3930 294.3735 0002378  90.5676 269.5794 14.36318182431215
IRIDIUM 914             
1 24836U 97030A   24246.87821108  .00001399  00000+0  43638-3 0  9993
2 24836  86.3929 303.8233 0004005  91.1385 269.0273 14.40208187565763
IRIDIUM 16              
1 24841U 97030F   24246.82884555  .00001539  00000+0  50187-3 0  9992
2 24841  86.4069 326.0264 0000595  13.6045 346.5169 14.38102898425699
IRIDIUM 911             
1 24842U 97030G   24246.77508736  .00001968  00000+0  53780-3 0  9999
2 24842  86.4494 325.1061 0013389 344.5073  15.5718 14.46804679433517
IRIDIUM 17              
1 24870U 97034B   24247.54326163  .00001974  00000+0  65733-3 0  9990
2 24870  86.4019 355.2865 0001379 143.8035 216.3256 14.37202219422407
IRIDIUM 920             
1 24871U 97034C   24247.48883718  .00001604  00000+0  49397-3 0  9996
2 24871  86.4024 335.2164 0009850 315.2218  44.8185 14.40910905425549
